{
  "norad_id": 51733,
  "name": "STARLINK-3525",
  "history": [
    {
      "epoch": "2026-03-28T16:22:39.422208Z",
      "apogee_km": 540.6543527618151,
      "perigee_km": 538.9257011563186,
      "latitude_deg": -2.458775752131046e-05,
      "longitude_deg": 162.10768183547782,
      "height_km": 540.8309627248258,
      "semi_major_axis_km": 6917.927026959066,
      "eccentricity": 0.00012494,
      "inclination_deg": 53.2176,
      "raan_deg": 233.8713,
      "arg_perigee_deg": 99.6601,
      "mean_anomaly_deg": 260.4532,
      "mean_motion_rev_day": 15.08824742
    },
    {
      "epoch": "2026-03-28T21:08:50.608320Z",
      "apogee_km": 540.5362695349486,
      "perigee_km": 539.1637409131126,
      "latitude_deg": 7.723873893099346e-06,
      "longitude_deg": 89.4719093279541,
      "height_km": 540.8718351013134,
      "semi_major_axis_km": 6917.98700522403,
      "eccentricity": 9.92e-05,
      "inclination_deg": 53.2175,
      "raan_deg": 232.978,
      "arg_perigee_deg": 100.5463,
      "mean_anomaly_deg": 259.5641,
      "mean_motion_rev_day": 15.0880512
    },
    {
      "epoch": "2026-03-30T01:45:44.739072Z",
      "apogee_km": 540.3583570945129,
      "perigee_km": 539.1106497901528,
      "latitude_deg": -3.624366566814633e-05,
      "longitude_deg": 13.718954598788576,
      "height_km": 540.6276610820078,
      "semi_major_axis_km": 6917.871503442333,
      "eccentricity": 9.018e-05,
      "inclination_deg": 53.2159,
      "raan_deg": 227.6258,
      "arg_perigee_deg": 89.723,
      "mean_anomaly_deg": 270.3865,
      "mean_motion_rev_day": 15.08842907
    },
    {
      "epoch": "2026-03-30T12:53:26.353248Z",
      "apogee_km": 540.2445668815526,
      "perigee_km": 539.2187853142623,
      "latitude_deg": 1.6469588320142553e-05,
      "longitude_deg": -155.7435180788237,
      "height_km": 540.6705936977353,
      "semi_major_axis_km": 6917.868676097907,
      "eccentricity": 7.414e-05,
      "inclination_deg": 53.2163,
      "raan_deg": 225.5437,
      "arg_perigee_deg": 94.7527,
      "mean_anomaly_deg": 265.355,
      "mean_motion_rev_day": 15.08843832
    },
    {
      "epoch": "2026-03-30T16:04:12.922464Z",
      "apogee_km": 540.2985200957446,
      "perigee_km": 539.1235927818389,
      "latitude_deg": -9.832854555869305e-06,
      "longitude_deg": 155.83744247958361,
      "height_km": 540.7035329901387,
      "semi_major_axis_km": 6917.848056438792,
      "eccentricity": 8.492e-05,
      "inclination_deg": 53.2149,
      "raan_deg": 224.9493,
      "arg_perigee_deg": 99.4375,
      "mean_anomaly_deg": 260.6713,
      "mean_motion_rev_day": 15.08850578
    },
    {
      "epoch": "2026-03-31T15:54:59.711904Z",
      "apogee_km": 540.2942883668547,
      "perigee_km": 539.151457915812,
      "latitude_deg": -1.7806737436364735e-05,
      "longitude_deg": 152.70274787375277,
      "height_km": 540.7234277516652,
      "semi_major_axis_km": 6917.859873141333,
      "eccentricity": 8.26e-05,
      "inclination_deg": 53.2169,
      "raan_deg": 220.4889,
      "arg_perigee_deg": 100.5028,
      "mean_anomaly_deg": 259.6057,
      "mean_motion_rev_day": 15.08846712
    },
    {
      "epoch": "2026-04-01T07:48:50.907744Z",
      "apogee_km": 540.4878902182882,
      "perigee_km": 538.9811777981804,
      "latitude_deg": -1.5581615631030528e-05,
      "longitude_deg": -89.38815495673886,
      "height_km": 540.5499382660626,
      "semi_major_axis_km": 6917.8715340082335,
      "eccentricity": 0.0001089,
      "inclination_deg": 53.2182,
      "raan_deg": 217.5142,
      "arg_perigee_deg": 83.8452,
      "mean_anomaly_deg": 276.2664,
      "mean_motion_rev_day": 15.08842897
    },
    {
      "epoch": "2026-04-02T14:01:10.089120Z",
      "apogee_km": 540.41924843977,
      "perigee_km": 539.0215645293629,
      "latitude_deg": 3.954358981383219e-05,
      "longitude_deg": 170.6431761208314,
      "height_km": 540.5609915569513,
      "semi_major_axis_km": 6917.857406484566,
      "eccentricity": 0.00010102,
      "inclination_deg": 53.217,
      "raan_deg": 211.8659,
      "arg_perigee_deg": 85.4402,
      "mean_anomaly_deg": 274.6706,
      "mean_motion_rev_day": 15.08847519
    },
    {
      "epoch": "2026-04-03T17:02:45.828960Z",
      "apogee_km": 540.4908288290653,
      "perigee_km": 539.1113919698519,
      "latitude_deg": -6.677511343217797e-06,
      "longitude_deg": 119.07918319890301,
      "height_km": 540.7458581420407,
      "semi_major_axis_km": 6917.938110399458,
      "eccentricity": 9.97e-05,
      "inclination_deg": 53.2162,
      "raan_deg": 206.8108,
      "arg_perigee_deg": 94.0472,
      "mean_anomaly_deg": 266.0634,
      "mean_motion_rev_day": 15.08821116
    },
    {
      "epoch": "2026-04-03T17:02:45.829824Z",
      "apogee_km": 540.4909671878268,
      "perigee_km": 539.1112536110895,
      "latitude_deg": -8.5198341173255e-06,
      "longitude_deg": 119.07917821917846,
      "height_km": 540.745867907053,
      "semi_major_axis_km": 6917.938110399458,
      "eccentricity": 9.972e-05,
      "inclination_deg": 53.2162,
      "raan_deg": 206.8108,
      "arg_perigee_deg": 94.0472,
      "mean_anomaly_deg": 266.0634,
      "mean_motion_rev_day": 15.08821116
    },
    {
      "epoch": "2026-04-05T13:33:32.836896Z",
      "apogee_km": 540.4846006332418,
      "perigee_km": 538.8685993762801,
      "latitude_deg": 1.723192196640384e-05,
      "longitude_deg": 161.22924626799647,
      "height_km": 540.6183718214903,
      "semi_major_axis_km": 6917.813600004761,
      "eccentricity": 0.0001168,
      "inclination_deg": 53.2178,
      "raan_deg": 198.4848,
      "arg_perigee_deg": 93.246,
      "mean_anomaly_deg": 266.8666,
      "mean_motion_rev_day": 15.08861851
    },
    {
      "epoch": "2026-04-05T13:33:32.837760Z",
      "apogee_km": 540.4843239206975,
      "perigee_km": 538.8688760888244,
      "latitude_deg": 2.0919855483278405e-05,
      "longitude_deg": 161.22924540015646,
      "height_km": 540.6183561534829,
      "semi_major_axis_km": 6917.813600004761,
      "eccentricity": 0.00011676,
      "inclination_deg": 53.2178,
      "raan_deg": 198.4848,
      "arg_perigee_deg": 93.246,
      "mean_anomaly_deg": 266.8666,
      "mean_motion_rev_day": 15.08861851
    },
    {
      "epoch": "2026-04-06T07:02:46.905216Z",
      "apogee_km": 540.4319017764974,
      "perigee_km": 538.9691942053496,
      "latitude_deg": -3.934677082611789e-06,
      "longitude_deg": -105.06686445421954,
      "height_km": 540.642394698861,
      "semi_major_axis_km": 6917.837547990923,
      "eccentricity": 0.00010572,
      "inclination_deg": 53.2167,
      "raan_deg": 195.2155,
      "arg_perigee_deg": 93.5899,
      "mean_anomaly_deg": 266.5214,
      "mean_motion_rev_day": 15.08854016
    },
    {
      "epoch": "2026-04-07T11:39:43.593408Z",
      "apogee_km": 540.5089122183981,
      "perigee_km": 538.9662261894646,
      "latitude_deg": 2.4728386491336027e-05,
      "longitude_deg": 179.16894592058085,
      "height_km": 540.7413321755848,
      "semi_major_axis_km": 6917.874569203931,
      "eccentricity": 0.0001115,
      "inclination_deg": 53.2184,
      "raan_deg": 189.8627,
      "arg_perigee_deg": 98.0191,
      "mean_anomaly_deg": 262.0928,
      "mean_motion_rev_day": 15.08841904
    },
    {
      "epoch": "2026-04-08T11:30:30.375072Z",
      "apogee_km": 540.5390114834609,
      "perigee_km": 538.9429186793577,
      "latitude_deg": -3.473622980054412e-05,
      "longitude_deg": 176.03394121844107,
      "height_km": 540.7309899650851,
      "semi_major_axis_km": 6917.8779650814095,
      "eccentricity": 0.00011536,
      "inclination_deg": 53.2176,
      "raan_deg": 185.402,
      "arg_perigee_deg": 96.7644,
      "mean_anomaly_deg": 263.3479,
      "mean_motion_rev_day": 15.08840793
    },
    {
      "epoch": "2026-04-09T12:56:40.761024Z",
      "apogee_km": 540.5724558541833,
      "perigee_km": 538.9301491711658,
      "latitude_deg": -1.556571887881623e-06,
      "longitude_deg": 148.68745954481844,
      "height_km": 540.6121096607227,
      "semi_major_axis_km": 6917.888302512674,
      "eccentricity": 0.0001187,
      "inclination_deg": 53.2176,
      "raan_deg": 180.6434,
      "arg_perigee_deg": 87.546,
      "mean_anomaly_deg": 272.5668,
      "mean_motion_rev_day": 15.08837411
    },
    {
      "epoch": "2026-04-10T11:12:04.601088Z",
      "apogee_km": 540.5675705032227,
      "perigee_km": 538.9211147436781,
      "latitude_deg": 7.015820312836546e-05,
      "longitude_deg": 169.76112981682832,
      "height_km": 540.5812696635804,
      "semi_major_axis_km": 6917.88134262345,
      "eccentricity": 0.000119,
      "inclination_deg": 53.2174,
      "raan_deg": 176.4804,
      "arg_perigee_deg": 85.8896,
      "mean_anomaly_deg": 274.2233,
      "mean_motion_rev_day": 15.08839688
    },
    {
      "epoch": "2026-04-11T11:02:51.501984Z",
      "apogee_km": 540.5250348612999,
      "perigee_km": 538.9588270713293,
      "latitude_deg": 6.34412606739098e-05,
      "longitude_deg": 166.62616717249864,
      "height_km": 540.561793392049,
      "semi_major_axis_km": 6917.878930966314,
      "eccentricity": 0.0001132,
      "inclination_deg": 53.2172,
      "raan_deg": 172.0202,
      "arg_perigee_deg": 84.4208,
      "mean_anomaly_deg": 275.6914,
      "mean_motion_rev_day": 15.08840477
    },
    {
      "epoch": "2026-04-12T14:04:25.017024Z",
      "apogee_km": 540.5067053363446,
      "perigee_km": 538.9857395310601,
      "latitude_deg": 2.0377572188832477e-05,
      "longitude_deg": 115.07107060304611,
      "height_km": 540.5868141577507,
      "semi_major_axis_km": 6917.883222433702,
      "eccentricity": 0.00010993,
      "inclination_deg": 53.217,
      "raan_deg": 166.9647,
      "arg_perigee_deg": 85.8201,
      "mean_anomaly_deg": 274.2917,
      "mean_motion_rev_day": 15.08839073
    }
  ]
}